{"type": "FeatureCollection", "features": [ {"type": "Feature", "properties": {"norad_id": 66544, "name": "STARLINK-35728", "group": "last-30-days", "lat": -12.482463415270896, "lon": 59.19927553022469, "alt_km": 410.49994892847735, "timestamp": "2025-12-09T11:33:53.575513+00:00", "meta": {"OBJECT_NAME": "STARLINK-35728", "OBJECT_ID": "2025-265AE", "EPOCH": "2025-12-09T04:00:01.998720", "MEAN_MOTION": 15.53816737, "ECCENTRICITY": 0.0001587, "INCLINATION": 43.0004, "RA_OF_ASC_NODE": 74.793, "ARG_OF_PERICENTER": 264.5479, "MEAN_ANOMALY": 112.6395, "EPHEMERIS_TYPE": 0, "CLASSIFICATION_TYPE": "U", "NORAD_CAT_ID": 66544, "ELEMENT_SET_NO": 999, "REV_AT_EPOCH": 442, "BSTAR": -0.032864, "MEAN_MOTION_DOT": -0.01909466, "MEAN_MOTION_DDOT": 0}, "tle": {"line1": "1 66544U 25265AE  25343.16668980 -.01909466  00000+0 -32864-1 0  9996", "line2": "2 66544  43.0004  74.7930 0001587 264.5479 112.6395 15.53816737  4429"}}, "geometry": {"type": "Point", "coordinates": [59.19927553022469, -12.482463415270896]}}, {"type": "Feature", "properties": {"norad_id": 66545, "name": "SHIJIAN-30A", "group": "last-30-days", "lat": 42.904271524748005, "lon": 121.07902623250075, "alt_km": 519.7785277948451, "timestamp": "2025-12-09T11:33:53.575523+00:00", "meta": {"OBJECT_NAME": "SHIJIAN-30A", "OBJECT_ID": "2025-266A", "EPOCH": "2025-12-09T04:42:29.240064", "MEAN_MOTION": 15.1553592, "ECCENTRICITY": 0.0012782, "INCLINATION": 51.7993, "RA_OF_ASC_NODE": 349.4629, "ARG_OF_PERICENTER": 343.534, "MEAN_ANOMALY": 16.5219, "EPHEMERIS_TYPE": 0, "CLASSIFICATION_TYPE": "U", "NORAD_CAT_ID": 66545, "ELEMENT_SET_NO": 999, "REV_AT_EPOCH": 304, "BSTAR": 0.0006742, "MEAN_MOTION_DOT": 0.00012678, "MEAN_MOTION_DDOT": 0}, "tle": {"line1": "1 66545U 25266A   25343.19617176  .00012678  00000+0  67420-3 0  9997", "line2": "2 66545  51.7993 349.4629 0012782 343.5340  16.5219 15.15535920  3048"}}, "geometry": {"type": "Point", "coordinates": [121.07902623250075, 42.904271524748005]}}, {"type": "Feature", "properties": {"norad_id": 66546, "name": "SHIJIAN-30B", "group": "last-30-days", "lat": 44.780931286242144, "lon": 116.72688287385323, "alt_km": 517.4379629615869, "timestamp": "2025-12-09T11:33:53.575536+00:00", "meta": {"OBJECT_NAME": "SHIJIAN-30B", "OBJECT_ID": "2025-266B", "EPOCH": "2025-12-09T04:43:28.659936", "MEAN_MOTION": 15.15628296, "ECCENTRICITY": 0.0010459, "INCLINATION": 51.7975, "RA_OF_ASC_NODE": 349.4646, "ARG_OF_PERICENTER": 346.6828, "MEAN_ANOMALY": 13.3871, "EPHEMERIS_TYPE": 0, "CLASSIFICATION_TYPE": "U", "NORAD_CAT_ID": 66546, "ELEMENT_SET_NO": 999, "REV_AT_EPOCH": 304, "BSTAR": 0.00078292, "MEAN_MOTION_DOT": 0.00014807, "MEAN_MOTION_DDOT": 0}, "tle": {"line1": "1 66546U 25266B   25343.19685949  .00014807  00000+0  78292-3 0  9996", "line2": "2 66546  51.7975 349.4646 0010459 346.6828  13.3871 15.15628296  3040"}}, "geometry": {"type": "Point", "coordinates": [116.72688287385323, 44.780931286242144]}}, {"type": "Feature", "properties": {"norad_id": 66547, "name": "SHIJIAN-30C", "group": "last-30-days", "lat": 46.49683181746468, "lon": 112.06188813766738, "alt_km": 517.9750229267074, "timestamp": "2025-12-09T11:33:53.575546+00:00", "meta": {"OBJECT_NAME": "SHIJIAN-30C", "OBJECT_ID": "2025-266C", "EPOCH": "2025-12-09T03:09:29.850336", "MEAN_MOTION": 15.15635295, "ECCENTRICITY": 0.0011368, "INCLINATION": 51.7984, "RA_OF_ASC_NODE": 349.7793, "ARG_OF_PERICENTER": 338.7087, "MEAN_ANOMALY": 21.3415, "EPHEMERIS_TYPE": 0, "CLASSIFICATION_TYPE": "U", "NORAD_CAT_ID": 66547, "ELEMENT_SET_NO": 999, "REV_AT_EPOCH": 303, "BSTAR": 0.00069414, "MEAN_MOTION_DOT": 0.00013095, "MEAN_MOTION_DDOT": 0}, "tle": {"line1": "1 66547U 25266C   25343.13159549  .00013095  00000+0  69414-3 0  9997", "line2": "2 66547  51.7984 349.7793 0011368 338.7087  21.3415 15.15635295  3035"}}, "geometry": {"type": "Point", "coordinates": [112.06188813766738, 46.49683181746468]}}, {"type": "Feature", "properties": {"norad_id": 66548, "name": "CZ-2C R/B", "group": "last-30-days", "lat": 51.50857569087829, "lon": 65.66869745162724, "alt_km": 456.9197642335612, "timestamp": "2025-12-09T11:33:53.575556+00:00", "meta": {"OBJECT_NAME": "CZ-2C R/B", "OBJECT_ID": "2025-266D", "EPOCH": "2025-12-08T11:41:13.267104", "MEAN_MOTION": 15.3004396, "ECCENTRICITY": 0.00842, "INCLINATION": 52.0568, "RA_OF_ASC_NODE": 351.5381, "ARG_OF_PERICENTER": 158.5152, "MEAN_ANOMALY": 201.9402, "EPHEMERIS_TYPE": 0, "CLASSIFICATION_TYPE": "U", "NORAD_CAT_ID": 66548, "ELEMENT_SET_NO": 999, "REV_AT_EPOCH": 296, "BSTAR": 0.00041963, "MEAN_MOTION_DOT": 0.00013418, "MEAN_MOTION_DDOT": 0}, "tle": {"line1": "1 66548U 25266D   25342.48695911  .00013418  00000+0  41963-3 0  9991", "line2": "2 66548  52.0568 351.5381 0084200 158.5152 201.9402 15.30043960  2960"}}, "geometry": {"type": "Point", "coordinates": [65.66869745162724, 51.50857569087829]}}, {"type": "Feature", "properties": {"norad_id": 66549, "name": "SHIJIAN-28", "group": "last-30-days", "lat": 7.493552210135756, "lon": -45.79855248724542, "alt_km": 24734.53048781192, "timestamp": "2025-12-09T11:33:53.575569+00:00", "meta": {"OBJECT_NAME": "SHIJIAN-28", "OBJECT_ID": "2025-277A", "EPOCH": "2025-12-01T04:36:42.476256", "MEAN_MOTION": 2.08595383, "ECCENTRICITY": 0.6308324, "INCLINATION": 11.5392, "RA_OF_ASC_NODE": 275.706, "ARG_OF_PERICENTER": 179.9335, "MEAN_ANOMALY": 180.3971, "EPHEMERIS_TYPE": 0, "CLASSIFICATION_TYPE": "U", "NORAD_CAT_ID": 66549, "ELEMENT_SET_NO": 999, "REV_AT_EPOCH": 5, "BSTAR": 0, "MEAN_MOTION_DOT": -3.3e-07, "MEAN_MOTION_DDOT": 0}, "tle": {"line1": "1 66549U 25277A   25335.19215829 -.00000033  00000+0  00000+0 0  9993", "line2": "2 66549  11.5392 275.7060 6308324 179.9335 180.3971  2.08595383    50"}}, "geometry": {"type": "Point", "coordinates": [-45.79855248724542, 7.493552210135756]}}, {"type": "Feature", "properties": {"norad_id": 66550, "name": "CZ-7A R/B", "group": "last-30-days", "lat": -11.560160681030407, "lon": -141.13128275680324, "alt_km": 11023.486703045332, "timestamp": "2025-12-09T11:33:53.575587+00:00", "meta": {"OBJECT_NAME": "CZ-7A R/B", "OBJECT_ID": "2025-277B", "EPOCH": "2025-12-08T10:49:33.008736", "MEAN_MOTION": 2.55273447, "ECCENTRICITY": 0.7123859, "INCLINATION": 14.4003, "RA_OF_ASC_NODE": 272.0222, "ARG_OF_PERICENTER": 184.9879, "MEAN_ANOMALY": 159.498, "EPHEMERIS_TYPE": 0, "CLASSIFICATION_TYPE": "U", "NORAD_CAT_ID": 66550, "ELEMENT_SET_NO": 999, "REV_AT_EPOCH": 23, "BSTAR": 0.0028793, "MEAN_MOTION_DOT": 0.01610432, "MEAN_MOTION_DDOT": 9.1299e-07}, "tle": {"line1": "1 66550U 25277B   25342.45107649  .01610432  91299-6  28793-2 0  9991", "line2": "2 66550  14.4003 272.0222 7123859 184.9879 159.4980  2.55273447   234"}}, "geometry": {"type": "Point", "coordinates": [-141.13128275680324, -11.560160681030407]}}, {"type": "Feature", "properties": {"norad_id": 66551, "name": "UNKNOWN", "group": "last-30-days", "lat": -37.242010422235325, "lon": 168.2301415590833, "alt_km": 336.4192282683971, "timestamp": "2025-12-09T11:33:53.575597+00:00", "meta": {"OBJECT_NAME": "UNKNOWN", "OBJECT_ID": "2025-271AE", "EPOCH": "2025-12-02T16:00:03.000096", "MEAN_MOTION": 15.87051116, "ECCENTRICITY": 7.17e-05, "INCLINATION": 53.1571, "RA_OF_ASC_NODE": 236.7807, "ARG_OF_PERICENTER": 110.7411, "MEAN_ANOMALY": 313.9012, "EPHEMERIS_TYPE": 0, "CLASSIFICATION_TYPE": "U", "NORAD_CAT_ID": 66551, "ELEMENT_SET_NO": 999, "REV_AT_EPOCH": 262, "BSTAR": -0.0074303, "MEAN_MOTION_DOT": -0.01709685, "MEAN_MOTION_DDOT": 0}, "tle": {"line1": "1 66551U 25271AE  25336.66670139 -.01709685  00000+0 -74303-2 0  9993", "line2": "2 66551  53.1571 236.7807 0000717 110.7411 313.9012 15.87051116  2624"}}, "geometry": {"type": "Point", "coordinates": [168.2301415590833, -37.242010422235325]}}, {"type": "Feature", "properties": {"norad_id": 66554, "name": "GLOBAL-33", "group": "last-30-days", "lat": 40.278912169912616, "lon": 146.0457198295242, "alt_km": 462.4557022995841, "timestamp": "2025-12-09T11:33:53.575610+00:00", "meta": {"OBJECT_NAME": "GLOBAL-33", "OBJECT_ID": "2025-267A", "EPOCH": "2025-12-08T13:19:37.894080", "MEAN_MOTION": 15.31498164, "ECCENTRICITY": 0.00047931, "INCLINATION": 42.0201, "RA_OF_ASC_NODE": 81.1482, "ARG_OF_PERICENTER": 22.7031, "MEAN_ANOMALY": 337.4018, "EPHEMERIS_TYPE": 0, "CLASSIFICATION_TYPE": "U", "NORAD_CAT_ID": 66554, "ELEMENT_SET_NO": 999, "REV_AT_EPOCH": 276, "BSTAR": 0.00059832068, "MEAN_MOTION_DOT": 0.00018392, "MEAN_MOTION_DDOT": 0}, "tle": {"line1": "1 66554U 25267A   25342.55529970  .00018392  00000+0  59832-3 0  9998", "line2": "2 66554  42.0201  81.1482 0004793  22.7031 337.4018 15.31498164  2762"}}, "geometry": {"type": "Point", "coordinates": [146.0457198295242, 40.278912169912616]}}, {"type": "Feature", "properties": {"norad_id": 66555, "name": "ELECTRON KICK STAGE R/B", "group": "last-30-days", "lat": 32.06020019806326, "lon": -148.40382545794677, "alt_km": 463.79558685089887, "timestamp": "2025-12-09T11:33:53.575622+00:00", "meta": {"OBJECT_NAME": "ELECTRON KICK STAGE R/B", "OBJECT_ID": "2025-267B", "EPOCH": "2025-12-08T13:06:52.531776", "MEAN_MOTION": 15.32503128, "ECCENTRICITY": 0.00068692, "INCLINATION": 42.0196, "RA_OF_ASC_NODE": 81.083, "ARG_OF_PERICENTER": 20.9024, "MEAN_ANOMALY": 339.2093, "EPHEMERIS_TYPE": 0, "CLASSIFICATION_TYPE": "U", "NORAD_CAT_ID": 66555, "ELEMENT_SET_NO": 999, "REV_AT_EPOCH": 276, "BSTAR": 0.00096183495, "MEAN_MOTION_DOT": 0.00030739, "MEAN_MOTION_DDOT": 0}, "tle": {"line1": "1 66555U 25267B   25342.54644134  .00030739  00000+0  96183-3 0  9997", "line2": "2 66555  42.0196  81.0830 0006869  20.9024 339.2093 15.32503128  2761"}}, "geometry": {"type": "Point", "coordinates": [-148.40382545794677, 32.06020019806326]}}]}